ONEWEB-0534             
1 55797U 23029B   23319.58335648 -.00038444  00000+0 -95020-1 0  9990
2 55797  87.9182 102.5210 0001537  78.4205 114.9109 13.20746727 37142
ONEWEB-0556             
1 55798U 23029C   23319.47323961  .00004353  00000+0  10676-1 0  9998
2 55798  87.9164 102.5373 0002687  74.9909 285.1521 13.20720422 37134
ONEWEB-0562             
1 55799U 23029D   23319.25002315  .00100701  00000+0  24523+0 0  9990
2 55799  87.9174 102.5718 0002878  84.2037 355.1520 13.20680766 37107
ONEWEB-0563             
1 55800U 23029E   23318.84822124  .00009991  00000+0  24526-1 0  9999
2 55800  87.9164 102.6668 0001613  83.7767 276.3550 13.20734918 37032
ONEWEB-0564             
1 55801U 23029F   23319.58335648  .00000013  00000+0  00000+0 0  9997
2 55801  87.9287 102.5029 0001260  94.5029 184.0985 13.23697731 37174
ONEWEB-0638             
1 55802U 23029G   23318.70572473 -.00000229  00000+0 -65296-3 0  9993
2 55802  87.8952 117.9534 0001677  64.8845 295.2458 13.14502709 35181
ONEWEB-0639             
1 55803U 23029H   23319.50631007  .00000052  00000+0  96561-4 0  9994
2 55803  87.9177 133.0002 0000415  29.3751 330.7405 13.19727451 34995
ONEWEB-0640             
1 55804U 23029J   23318.71521918 -.00000929  00000+0 -25404-2 0  9997
2 55804  87.8927 117.9572 0001625  50.8460 309.2814 13.14508994 35205
